Dione;Mercury_z_effect_end_km_s2;1.0402142903528648e-14;1.0735314946905114e-14;3.3317204337646536e-16;9.90238483846395e-15;1.1235073011969811e-14;0
Europa;tof_days_d;592.3581392983735;927.5794277713003;335.22128847292674;89.52620658898343;1430.4113604806903;0
Europa;delta_v_km_s;16.087434256317536;18.46394501335049;2.3765107570329533;12.522668120768106;22.02871114889992;0
Europa;r1_x_geocentric_km;-3080.0593216275;4431.2206536957965;7511.279975323297;-14346.979284612444;15698.140616680741;0
Europa;r1_y_geocentric_km;-3232.4214745620966;3901.631513927303;7134.0529884893995;-13933.500957296197;14602.710996661403;0
Europa;r1_z_geocentric_km;-4117.364346638335;1678.7075030786384;5796.071849716973;-12811.472121213794;10372.815277654097;0
Europa;orbit_altitude_km;563.358023764065;1383.9238843662654;820.5658606022004;-667.4907671392356;2614.772675269566;0
Europa;semi_major_axis_km;6941.494623764065;7762.060484366265;820.5658606021998;5710.645832860766;8992.909275269565;0
Europa;eccentricity;0.025981310067854275;0.0777787477641249;0.051797437696270626;-0.05171484647655167;0.15547490430853084;0
Europa;arg_periapsis_deg;113.74197322080968;262.7922425228077;149.05026930199804;-109.8334307321874;486.3676464758048;0
Europa;raan_deg;95.74371668584003;243.3450790069426;147.60136232110256;-125.6583267958138;464.74712248859646;0
Europa;inclination_deg;48.48810489177707;122.77533634097972;74.28723144920265;-62.94274228202691;234.2061835147837;0
Europa;mean_anomaly_deg;100.51644934177082;275.14818134765835;174.63173200588753;-161.43114866706046;537.0957793564896;0
Europa;eccentric_anomaly_deg;101.32637961012918;274.5234363910068;173.1970567808776;-158.46920556118724;534.3190215623232;0
Europa;true_anomaly_deg;104.90392076356486;273.70366815265686;168.799747389092;-148.29570032007317;526.9032892362949;0
Europa;r1_x_km;129747108.63771974;147991705.0161266;18244596.378406867;102380214.07010943;175358599.5837369;0
Europa;r1_y_km;-24468987.02049367;65983760.80424622;90452747.82473989;-160148108.75760353;201662882.54135606;0
Europa;r1_z_km;-10584791.474006388;28612906.735888075;39197698.20989446;-69381338.78884809;87409454.05072977;0
Europa;v1_x_km_s;-15.020169717687786;4.653608567819831;19.673778285507616;-44.53083714594921;34.16427599608126;0
Europa;v1_y_km_s;23.742243822199377;26.863032318135023;3.1207884959356456;19.061061078295907;31.54421506203849;0
Europa;v1_z_km_s;10.290531539665924;11.645084863606456;1.3545533239405323;8.258701553755126;13.676914849517255;0
Europa;v1_magnitude_km_s;29.61477178750757;29.91980413421466;0.30503234670709034;29.157223267446938;30.3773526542753;0
Europa;r2_x_km;-812882237.0187856;-807711172.2879101;5171064.730875492;-820638834.1150988;-799954575.1915969;17
Europa;r2_y_km;5162570.982931692;47312436.52424379;42149865.5413121;-58062227.32903646;110537234.83621193;43
Europa;r2_z_km;17987125.99806569;18227180.560855705;240054.56279001385;17627044.15388067;18587262.405040726;22
Europa;v2_x_km_s;-12.65979696573213;-3.1625564862671904;9.49724047946494;-26.90565768492954;11.08330423293022;0
Europa;v2_y_km_s;-5.6104036021856265;0.6682036623900276;6.278607264575654;-15.028314499049106;10.086114559253508;0
Europa;v2_z_km_s;0.0472263070985481;0.4388370815360563;0.3916107744375082;-0.5401898545577142;1.0262532431923186;0
Europa;v2_magnitude_km_s;3.822002611202947;13.8473578027384;10.025355191535454;-11.216030176100233;28.88539059004158;0
Europa;r1_with_gravity_corrected_x_km;129747108.63772497;147991705.01613235;18244596.37840739;102380214.07011388;175358599.58374345;0
Europa;r1_with_gravity_corrected_y_km;-24468987.020494595;65983760.80424891;90452747.82474351;-160148108.75760984;201662882.54136416;0
Europa;r1_with_gravity_corrected_z_km;-10584791.474006804;28612906.735889222;39197698.20989603;-69381338.78885084;87409454.05073327;0
Europa;r1_total_corrected_x_km;129747108.63772497;147991705.01613235;18244596.37840739;102380214.07011388;175358599.58374345;0
Europa;r1_total_corrected_y_km;-24468987.020494595;65983760.80424891;90452747.82474351;-160148108.75760984;201662882.54136416;0
Europa;r1_total_corrected_z_km;-10584791.474006804;28612906.735889222;39197698.20989603;-69381338.78885084;87409454.05073327;0
Europa;v1_transfer_x_km_s;-18.35563988261695;-1.8102525074062286;16.54538737521072;-43.173720945433026;23.007828555409848;0
Europa;v1_transfer_y_km_s;31.892287759141063;36.299348132619706;4.407060373478643;25.281697198923098;42.90993869283767;0
Europa;v1_transfer_z_km_s;14.227187060250618;16.995488097312943;2.7683010370623258;10.074735504657129;21.14793965290643;16
Europa;r2_total_corrected_x_km;-812882237.0186433;-807711172.2877039;5171064.730939388;-820638834.1150523;-799954575.1912948;17
Europa;r2_total_corrected_y_km;5162570.983207648;47312436.524147175;42149865.540939525;-58062227.32820164;110537234.83555646;43
Europa;r2_total_corrected_z_km;17987125.998067595;18227180.56086492;240054.5627973266;17627044.153871603;18587262.40506091;22
Europa;v2_transfer_x_km_s;-9.639665362549463;-2.4904344287804285;7.149230933769035;-20.363511763203014;8.233411971873124;0
Europa;v2_transfer_y_km_s;-6.5339322310138925;-6.188524115394574;0.3454081156193185;-7.052044404442871;-5.670411941965597;17
Europa;v2_transfer_z_km_s;-3.0233922285417782;-2.366821596406009;0.6565706321357694;-4.0082481767454325;-1.3819656482023548;12
Europa;delta_r1_with_gravity_x_km;5.230307579040527e-06;5.841255187988281e-06;6.109476089477539e-07;4.3138861656188965e-06;6.757676601409912e-06;0
Europa;delta_r1_with_gravity_y_km;-9.201467037200928e-07;2.689659595489502e-06;3.6098062992095947e-06;-6.334856152534485e-06;8.104369044303894e-06;0
Europa;delta_r1_with_gravity_z_km;-4.153698682785034e-07;1.1511147022247314e-06;1.5664845705032349e-06;-2.7650967240333557e-06;3.5008415579795837e-06;0
Europa;delta_r1_x_km;5.230307579040527e-06;5.841255187988281e-06;6.109476089477539e-07;4.3138861656188965e-06;6.757676601409912e-06;0
Europa;delta_r1_y_km;-9.201467037200928e-07;2.689659595489502e-06;3.6098062992095947e-06;-6.334856152534485e-06;8.104369044303894e-06;0
Europa;delta_r1_z_km;-4.153698682785034e-07;1.1511147022247314e-06;1.5664845705032349e-06;-2.7650967240333557e-06;3.5008415579795837e-06;0
Europa;delta_r2_x_km;0.0001423358917236;0.0002593994140625;0.00011706352233890001;-3.3259391784750016e-05;0.00043499469757085;0
Europa;delta_r2_y_km;3.842823207378388e-05;0.0002457052469253;0.00020727701485151614;-0.00027248729020349033;0.0005566207692025742;0
Europa;delta_r2_z_km;6.05359673500061e-06;9.57772135734558e-06;3.524124622344969e-06;7.674098014831568e-07;1.4863908290863034e-05;0
Europa;ax_J2_km_s2;-5.112532842776845e-23;-3.871183807795191e-23;1.2413490349816538e-23;-6.974556395249325e-23;-2.0091602553227106e-23;0
Europa;ay_J2_km_s2;-1.9681463375437128e-23;8.246352338878481e-24;2.792781571431561e-23;-6.157318694691054e-23;5.0138075910351897e-23;0
Europa;az_J2_km_s2;-2.951038817064157e-23;1.0882389294072951e-23;4.039277746471452e-23;-9.009955436771334e-23;7.147155549114473e-23;0
Europa;a_J2_magnitude_km_s2;5.1621963432144363e-23;5.273289627376249e-23;1.1109328416181261e-24;4.9955564169717174e-23;5.439929553618967e-23;11
Europa;ax_J3_km_s2;-1.138251466630837e-31;5.9021102075495325e-33;1.1972725687063323e-31;-2.934160319690335e-31;1.8549299551349939e-31;0
Europa;ay_J3_km_s2;-5.789859031893077e-32;-6.499193219888877e-34;5.724867099694188e-32;-1.437715968143436e-31;8.522308717342394e-32;17
Europa;az_J3_km_s2;-2.3940852592675436e-39;6.72348602902562e-39;9.117571288293163e-39;-1.607044219170729e-38;2.0399842961465365e-38;0
Europa;a_J3_magnitude_km_s2;4.442748822087031e-33;1.2772043590015284e-31;1.232776870780658e-31;-1.8047378179501168e-31;3.126369665172516e-31;16
Europa;ax_J4_km_s2;-5.807778940953119e-20;-7.416557837084857e-22;5.73361336258227e-20;-1.4408198984826523e-19;8.526254465502557e-20;16
Europa;ay_J4_km_s2;-2.9532756233976073e-20;1.8456145178428232e-22;2.9717317685760356e-20;-7.41087327626166e-20;4.476053798042481e-20;15
Europa;az_J4_km_s2;-1.2804844830632754e-20;7.982006120799045e-23;1.2884664891840744e-20;-3.2131842168393866e-20;1.9406817398969107e-20;15
Europa;a_J4_magnitude_km_s2;7.512304292743725e-22;6.640446326935181e-20;6.565323284007743e-20;-9.772861883084177e-20;1.6488431252946797e-19;17
Europa;Sun_effect_start_km_s2;5.856110319283674e-06;5.99093513494379e-06;1.3482481566011552e-07;5.653873095793501e-06;6.193172358433963e-06;0
Europa;Mercury_effect_start_km_s2;7.249894573920119e-12;1.27309348092403e-10;1.200594535184829e-10;-1.7283928570380424e-10;3.0739852837012736e-10;0
Europa;Venus_effect_start_km_s2;4.669630447686671e-10;4.2757547028573905e-09;3.808791658088723e-09;-5.246224442364417e-09;9.988942189990475e-09;27
Europa;Earth_effect_start_km_s2;3.5788990893635916e-13;8.064635762037975e-13;4.4857366726743837e-13;-3.149705919647984e-13;1.479324077104955e-12;0
Europa;Mars_effect_start_km_s2;5.753454257710903e-12;5.2003820411273305e-11;4.6250366153562404e-11;-6.36220949726327e-11;1.213793696416169e-10;27
Europa;Moon_effect_start_km_s2;1.6553242667697166e-10;1.9101220704008128e-10;2.547978036310962e-11;1.2731275613230724e-10;2.2923187758474572e-10;0
Europa;Jupiter_effect_start_km_s2;2.3164282995290432e-11;2.3474803669019787e-11;3.105206737293546e-13;2.26985019846964e-11;2.394058467961382e-11;0
Europa;Saturn_effect_start_km_s2;7.063993873347555e-13;7.440253175023951e-13;3.762593016763961e-14;6.499604920832961e-13;8.004642127538545e-13;0
Europa;Uranus_effect_start_km_s2;3.6331367228583214e-13;3.660278657406502e-13;2.714193454818037e-15;3.592423821036051e-13;3.7009915592287726e-13;0
Europa;Neptune_effect_start_km_s2;3.4576481746102456e-17;3.584571781494523e-17;1.269236068842773e-18;3.2672627642838296e-17;3.774957191820939e-17;0
Europa;Pluto_effect_start_km_s2;5.230331574999947e-06;5.842056299096322e-06;6.117247240963753e-07;4.3127444888553845e-06;6.759643385240886e-06;0
Europa;Sun_x_effect_start_km_s2;6.088817418029624e-12;8.774528283201446e-11;8.165646541398483e-11;-1.1639588070294762e-10;2.102299809529917e-10;0
